satname,norad_id,inclination_deg,eccentricity,mean_motion_rev_per_day,perigee_km,apogee_km,l1,l2
STARLINK-1008,44714,53.054,0.0001523,15.0641647,546.1063573226838,548.2158031179197,1 44714U 19074B   25312.55550949  .00010740  00000+0  73846-3 0  9998,2 44714  53.0540  10.4095 0001523  91.0762 269.0401 15.06416470330499
STARLINK-1010,44716,53.0364,0.0003967,16.14552009,231.76209358872893,237.0084687666158,1 44716U 19074D   25314.88811906  .01256477  11257-2  96864-3 0  9995,2 44716  53.0364 277.7882 0003967 119.2982 240.8451 16.14552009331973
STARLINK-1011,44717,53.045,0.0004578,15.90220756,298.60657737327074,304.72260370957065,1 44717U 19074E   25312.91667823  .00313685  47401-4  10213-2 0  9994,2 44717  53.0450 346.3499 0004578 356.5800 287.4741 15.90220756  6041
STARLINK-1012,44718,53.0546,0.0001324,15.06401053,546.29141492504,548.1252463685951,1 44718U 19074F   25312.53339582  .00013499  00000+0  92333-3 0  9994,2 44718  53.0546  10.5097 0001324 103.5915 256.5221 15.06401053330481
STARLINK-1017,44723,53.0522,0.000213,15.15497354,517.9998587114897,520.9382388882786,1 44723U 19074L   25312.59277951  .00041184  00000+0  21530-2 0  9999,2 44723  53.0522   6.3358 0002130 315.5553  44.5268 15.15497354330556
STARLINK-1019,44724,53.0553,0.0001151,15.29129753,477.6233088848094,479.2016865791875,1 44724U 19074M   25312.91667823  .01683504  00000+0  53083-1 0  9993,2 44724  53.0553   7.6676 0001151  89.0489  70.2395 15.29129753  5838
STARLINK-1020,44725,53.0544,0.0001236,15.06402905,546.3466825646801,548.0586265272841,1 44725U 19074N   25312.46888698  .00013257  00000+0  90711-3 0  9991,2 44725  53.0544  30.8002 0001236 100.1002 260.0127 15.06402905330190
STARLINK-1031,44736,53.0502,0.0005794,15.49402123,414.5359832211989,422.4118959780062,1 44736U 19074Z   25312.91667823  .00150076  00000+0  26448-2 0  9994,2 44736  53.0502 355.5899 0005794 299.8559   7.4144 15.49402123  5946
STARLINK-1036,44741,53.0546,0.0001256,15.06403792,546.3301137096396,548.0697583479705,1 44741U 19074AE  25312.63106961  .00014912  00000+0  10178-2 0  9991,2 44741  53.0546  30.0696 0001256 105.4110 254.7018 15.06403792330229
STARLINK-1039,44744,53.0514,0.0002944,15.13610636,523.1674340470736,527.2321187410153,1 44744U 19074AH  25312.66097115  .00041493  00000+0  22871-2 0  9994,2 44744  53.0514  47.5062 0002944 174.5312 185.5713 15.13610636329982
STARLINK-1042,44747,53.0469,0.0003371,15.43464089,433.59777450641286,438.1917947356051,1 44747U 19074AL  25312.29763437  .00026353  00000+0  58669-3 0  9996,2 44747  53.0469 314.4100 0003371 102.6125 257.5257 15.43464089331283
STARLINK-1043,44748,53.0553,0.0001672,15.06398922,546.0569430236847,548.3727806862889,1 44748U 19074AM  25312.66976587 -.00002384  00000+0 -14121-3 0  9995,2 44748  53.0553  49.8935 0001672 117.2567 242.8593 15.06398922329959
STARLINK-1046,44751,53.0558,0.0001011,15.06399399,546.5132469918981,547.9135528427605,1 44751U 19074AQ  25312.55181229  .00002163  00000+0  16408-3 0  9991,2 44751  53.0558  50.4255 0001011 101.3903 258.7200 15.06399399329934
STARLINK-1047,44752,53.0709,0.0002557,15.29432513,475.754617165474,479.2605938167226,1 44752U 19074AR  25312.40542058  .00013052  00000+0  46275-3 0  9991,2 44752  53.0709 351.2626 0002557 176.7437 183.3579 15.29432513330767
STARLINK-1048,44753,53.0544,0.0001509,15.06389601,546.1983896520733,548.2884694657141,1 44753U 19074AS  25312.57760566  .00001792  00000+0  13918-3 0  9992,2 44753  53.0544  10.3099 0001509  96.6017 263.5144 15.06389601330495
STARLINK-1053,44758,53.0405,0.0004156,15.61511138,380.48130359318293,386.10140284037607,1 44758U 19074AX  25312.73701218  .00082045  00000+0  93663-3 0  9999,2 44758  53.0405 324.6980 0004156  52.4819 307.6571 15.61511138331169
STARLINK-1054,44759,53.0334,0.0006553,16.03160785,261.3180372522602,270.02541296738855,1 44759U 19074AY  25314.48455339  .00737114  27241-3  11712-2 0  9992,2 44759  53.0334 337.3717 0006553  21.2824 338.8477 16.03160785328772
STARLINK-1060,44765,53.0525,0.0005588,15.65107707,369.15651774663456,376.7015091232497,1 44765U 19074BE  25312.91667823  .00085141  00000+0  84350-3 0  9993,2 44765  53.0525   9.8258 0005588   4.9184 222.5634 15.65107707  5987
STARLINK-1063,44768,53.0544,0.00013,15.0641699,546.259197981446,548.0597750679426,1 44768U 19074BH  25312.73980155  .00019230  00000+0  13058-2 0  9994,2 44768  53.0544  49.5839 0001300  73.5744 286.5388 15.06416990329975
STARLINK-1067,44771,53.0545,0.0001359,15.06398466,546.2751039233735,548.1574149392873,1 44771U 19074BL  25312.79509213  .00006332  00000+0  44360-3 0  9996,2 44771  53.0545  49.3357 0001359  81.5390 278.5753 15.06398466329977
STARLINK-1068,44772,53.0546,0.0001292,15.06402301,546.3097515911204,548.0992598361972,1 44772U 19074BM  25312.45414955  .00013198  00000+0  90320-3 0  9993,2 44772  53.0546  30.8663 0001292  81.7590 278.3546 15.06402301330192
STARLINK-1112,44925,53.0476,0.0004005,15.55479693,398.04363170446413,403.47352706355196,1 44925U 20001M   25312.75135270  .00055903  00000+0  80582-3 0  9997,2 44925  53.0476 124.4409 0004005 170.7694 189.3391 15.55479693322250
STARLINK-1114,44927,53.0539,0.0001309,15.0640258,546.2971235299847,548.1101777123185,1 44927U 20001P   25312.62552148 -.00000468  00000+0 -12516-4 0  9993,2 44927  53.0539 170.0986 0001309  97.9311 262.1826 15.06402580321607
STARLINK-1123,44930,53.0515,0.0001551,15.06394666,546.1537818313709,548.3020300251892,1 44930U 20001S   25312.30854302  .00000092  00000+0  25065-4 0  9993,2 44930  53.0515 171.5196 0001551  92.0780 268.0387 15.06394666321555
STARLINK-1144,44933,53.0438,0.0008595,15.62953501,373.32301020644263,384.9387536955164,1 44933U 20001V   25312.78211049  .00118302  00000+0  12672-2 0  9995,2 44933  53.0438 100.9409 0008595 125.7040 234.4775 15.62953501323880
STARLINK-1094,44941,53.0521,0.0002399,15.06403852,545.5383638513867,548.8611404250623,1 44941U 20001AD  25312.25507483 -.00001441  00000+0 -77847-4 0  9990,2 44941  53.0521 151.7601 0002399  80.8221 279.3039 15.06403852321828
STARLINK-1096,44942,52.9839,0.0007221,15.96477386,279.3901042010157,289.0118527094992,1 44942U 20001AE  25312.91667823  .00433094  87662-4  10088-2 0  9996,2 44942  52.9839 262.1760 0007221  87.1482 304.0001 15.96477386  6063
STARLINK-1122,44949,53.0529,0.0001622,15.06389149,546.1215179597039,548.368111820454,1 44949U 20001AM  25312.60894529  .00001634  00000+0  12861-3 0  9993,2 44949  53.0529 150.1681 0001622  92.7544 267.3630 15.06389149321874
STARLINK-1080,44961,53.0566,0.0001342,15.06401147,546.2786612459968,548.1374238554163,1 44961U 20001AZ  25312.20901961 -.00000570  00000+0 -19399-4 0  9996,2 44961  53.0566 131.9678 0001342  84.6588 275.4555 15.06401147322105
STARLINK-1090,44968,53.0548,0.0002229,15.06406646,545.647533327041,548.7348446336891,1 44968U 20001BG  25312.54442911  .00003634  00000+0  26272-3 0  9994,2 44968  53.0548 130.4613 0002229 105.6309 254.4926 15.06406646322158
STARLINK-1107,44972,53.0069,0.0006316,15.72320813,348.01502048797465,356.51686548555426,1 44972U 20001BL  25312.91667823  .00263329  00000+0  18901-2 0  9999,2 44972  53.0069  39.4087 0006316 334.5334 171.7095 15.72320813  6001
STARLINK-1132,45044,53.0534,0.0001189,15.06393378,546.4084271322026,548.0552798455619,1 45044U 20006A   25312.76928928  .00001038  00000+0  88592-4 0  9996,2 45044  53.0534  89.4513 0001189  97.2724 262.8401 15.06393378318515
STARLINK-1131,45047,53.0545,0.0001541,15.06395522,546.1580840696079,548.2924807250438,1 45047U 20006D   25312.74539147  .00001011  00000+0  86792-4 0  9999,2 45047  53.0545 110.0986 0001541  94.6309 265.4856 15.06395522318221
STARLINK-1134,45048,53.0401,0.0012282,15.26667851,477.3514930892361,494.21202312665173,1 45048U 20006E   25297.87285069  .00016521  00000+0  63194-3 0  9999,2 45048  53.0401 155.6330 0012282 116.8822 243.3433 15.26667851316281
STARLINK-1156,45054,53.0541,0.0001384,15.06394912,546.2686815707302,548.1856223679943,1 45054U 20006L   25312.78218461  .00001076  00000+0  91160-4 0  9990,2 45054  53.0541 109.3928 0001384  87.6483 272.4664 15.06394912318230
STARLINK-1159,45057,53.0552,0.000105,15.40142742,444.9711578048755,446.40416098334936,1 45057U 20006P   25312.91667823  .01325088  00000+0  29721-1 0  9992,2 45057  53.0552 106.4073 0001050  81.8920 353.0186 15.40142742  5830
STARLINK-1166,45060,53.0522,0.0001467,15.06392674,546.2180592367977,548.2499630914735,1 45060U 20006S   25312.74164237  .00004214  00000+0  30170-3 0  9994,2 45060  53.0522 109.5757 0001467  97.6244 262.4912 15.06392674318234
STARLINK-1169,45061,53.0532,0.0001636,15.06365354,546.1847405772432,548.4507493697993,1 45061U 20006T   25312.81537115  .00007564  00000+0  52661-3 0  9992,2 45061  53.0532 109.2456 0001636  96.6435 263.4740 15.06365354318244
STARLINK-1171,45062,53.0554,0.0002637,15.34564267,460.41124678354936,464.01884845346376,1 45062U 20006U   25312.76646209  .00201665  00000+0  57904-2 0  9994,2 45062  53.0554 105.6001 0002637 291.5435  68.5285 15.34564267318291
STARLINK-1133,45064,53.0544,0.0001356,15.06502045,545.9597875070494,547.8378572220736,1 45064U 20006W   25312.68075892 -.00020498  00000+0 -13574-2 0  9991,2 45064  53.0544  89.8451 0001356  62.4979 297.6148 15.06502045318501
STARLINK-1167,45071,53.0507,0.0001271,15.06405288,546.3151412854832,548.0755607691144,1 45071U 20006AD  25312.77296722 -.00000478  00000+0 -13213-4 0  9994,2 45071  53.0507  89.4345 0001271  84.3899 275.7235 15.06405288318512
STARLINK-1168,45072,53.0539,0.0001228,15.06389011,546.3948009065061,548.095674784121,1 45072U 20006AE  25312.77665293  .00001980  00000+0  15181-3 0  9990,2 45072  53.0539  89.4161 0001228  85.1962 274.9167 15.06389011318516
STARLINK-1172,45074,53.0547,0.0001254,15.06395194,546.357847118973,548.0947282315219,1 45074U 20006AG  25312.78771051  .00002190  00000+0  16589-3 0  9990,2 45074  53.0547  89.3680 0001254  86.5186 273.5947 15.06395194318514
